NORAD_CAT_ID,OBJECT_NAME,OBJECT_TYPE,EPOCH,MEAN_MOTION,ECCENTRICITY,INCLINATION,RA_OF_ASC_NODE,ARG_OF_PERICENTER,MEAN_ANOMALY,BSTAR,MEAN_MOTION_DOT,MEAN_MOTION_DDOT,TLE_LINE0,TLE_LINE1,TLE_LINE2,SEMIMAJOR_AXIS,PERIOD,APOGEE,PERIGEE,DECAYED
56484.0,STARLINK-6221,PAYLOAD,2023-05-16 16:00:00,15.9071444,0.0024478,70.0,229.0556,159.5165,313.5123,-0.0029358,-0.00937679,0.00026487,0 STARLINK-6221,1 56484U 23064AN  23136.66667824 -.00937679  26487-3 -29358-2 0  9994,2 56484  70.0000 229.0556 0024478 159.5165 313.5123 15.90714440  1309,6678.419,90.525,316.632,283.937,0.0
56484.0,STARLINK-6221,PAYLOAD,2023-05-16 22:00:00,15.90241251,0.0022298,69.9996,228.3314,159.8834,304.1452,-0.0031707,-0.00983499,0.00028797,0 STARLINK-6221,1 56484U 23064AN  23136.91667824 -.00983499  28797-3 -31707-2 0  9990,2 56484  69.9996 228.3314 0022298 159.8834 304.1452 15.90241251  1337,6679.744,90.552,316.504,286.715,0.0
56484.0,STARLINK-6221,PAYLOAD,2023-05-17 22:00:00,15.8829118,0.0012991,69.9994,225.4382,164.5286,259.1115,-0.0035986,-0.00997081,0.00028983,0 STARLINK-6221,1 56484U 23064AN  23137.91667824 -.00997081  28983-3 -35986-2 0  9993,2 56484  69.9994 225.4382 0012991 164.5286 259.1115 15.88291180  1496,6685.211,90.663,315.76,298.391,0.0
56484.0,STARLINK-6221,PAYLOAD,2023-05-18 14:00:01,15.86979728,0.0007207,69.9994,223.5141,175.2998,97.5059,-0.0037634,-0.00885436,0.0,0 STARLINK-6221,1 56484U 23064AN  23138.58334491 -.00885436  00000-0 -37634-2 0  9997,2 56484  69.9994 223.5141 0007207 175.2998  97.5059 15.86979728  1301,6688.893,90.738,315.579,305.937,0.0
56484.0,STARLINK-6221,PAYLOAD,2023-05-18 22:00:00,15.8634149,0.0004776,69.9992,222.5535,192.0338,184.1773,-0.0040444,-0.00916937,0.0,0 STARLINK-6221,1 56484U 23064AN  23138.91667824 -.00916937  00000-0 -40444-2 0  9997,2 56484  69.9992 222.5535 0004776 192.0338 184.1773 15.86341490  1651,6690.687,90.775,315.748,309.357,0.0
56484.0,STARLINK-6221,PAYLOAD,2023-05-19 22:00:01,15.84387116,0.0003486,69.9996,219.6781,266.008,55.804,-0.0044251,-0.00912179,0.0,0 STARLINK-6221,1 56484U 23064AN  23139.91668981 -.00912179  00000-0 -44251-2 0  9997,2 56484  69.9996 219.6781 0003486 266.0080  55.8040 15.84387116  1810,6696.188,90.887,320.387,315.719,0.0
56484.0,STARLINK-6221,PAYLOAD,2023-05-20 10:17:15,15.83613109,0.0004013,69.9994,218.2073,272.9412,87.1332,-0.00058909,-0.00128035,0.0,0 STARLINK-6221,1 56484U 23064AN  23140.42865621 -.00128035  00000-0 -58909-3 0  9991,2 56484  69.9994 218.2073 0004013 272.9412  87.1332 15.83613109  1892,6698.37,90.931,322.923,317.547,0.0
56484.0,STARLINK-6221,PAYLOAD,2023-05-21 06:00:00,15.8181291,0.000388,69.9988,215.8552,269.8772,88.2766,-0.0052988,-0.00961552,0.0,0 STARLINK-6221,1 56484U 23064AN  23141.25001157 -.00961552  00000-0 -52988-2 0  9998,2 56484  69.9988 215.8552 0003880 269.8772  88.2766 15.81812910  2023,6703.451,91.035,327.917,322.715,0.0
56484.0,STARLINK-6221,PAYLOAD,2023-05-21 14:00:01,15.81101132,0.0003649,69.9985,214.9013,277.1889,178.1343,-0.0048746,-0.00865286,0.0,0 STARLINK-6221,1 56484U 23064AN  23141.58334491 -.00865286  00000-0 -48746-2 0  9998,2 56484  69.9985 214.9013 0003649 277.1889 178.1343 15.81101132  1303,6705.463,91.076,329.774,324.881,0.0
56484.0,STARLINK-6221,PAYLOAD,2023-05-21 22:00:00,15.80457072,0.0003453,69.9982,213.9487,270.9219,280.7697,-0.0051973,-0.00892547,0.0,0 STARLINK-6221,1 56484U 23064AN  23141.91667824 -.00892547  00000-0 -51973-2 0  9990,2 56484  69.9982 213.9487 0003453 270.9219 280.7697 15.80457072  2135,6707.284,91.113,331.465,326.833,0.0
56484.0,STARLINK-6221,PAYLOAD,2023-05-22 14:00:01,15.79151688,0.0003463,69.9985,212.0465,274.5422,107.5356,-0.0054079,-0.00876469,0.0,0 STARLINK-6221,1 56484U 23064AN  23142.58334491 -.00876469  00000-0 -54079-2 0  9990,2 56484  69.9985 212.0465 0003463 274.5422 107.5356 15.79151688  2232,6710.98,91.188,335.169,330.521,0.0
56484.0,STARLINK-6221,PAYLOAD,2023-05-22 22:00:00,15.78485521,0.0003327,69.9982,211.0969,271.3905,204.7171,-0.0055006,-0.00865965,0.0,0 STARLINK-6221,1 56484U 23064AN  23142.91667824 -.00865965  00000-0 -55006-2 0  9996,2 56484  69.9982 211.0969 0003327 271.3905 204.7171 15.78485521  1304,6712.868,91.227,336.966,332.5,0.0
56484.0,STARLINK-6221,PAYLOAD,2023-05-23 06:00:00,15.77894384,0.0003348,69.9984,210.1485,267.7188,301.6071,-0.0062899,-0.00954135,0.0,0 STARLINK-6221,1 56484U 23064AN  23143.25001157 -.00954135  00000-0 -62899-2 0  9991,2 56484  69.9984 210.1485 0003348 267.7188 301.6071 15.77894384  2345,6714.544,91.261,338.657,334.161,0.0
56484.0,STARLINK-6221,PAYLOAD,2023-05-23 22:00:00,15.7652723,0.0003526,69.9975,208.2535,271.7571,121.7209,-0.0059687,-0.00861339,0.0,0 STARLINK-6221,1 56484U 23064AN  23143.91667824 -.00861339  00000-0 -59687-2 0  9997,2 56484  69.9975 208.2535 0003526 271.7571 121.7209 15.76527230  2445,6718.426,91.34,342.66,337.922,0.0
56484.0,STARLINK-6221,PAYLOAD,2023-05-24 14:00:01,15.75235301,0.0003436,69.9976,206.3622,275.2385,299.3012,-0.0064028,-0.00871706,0.0,0 STARLINK-6221,1 56484U 23064AN  23144.58335648 -.00871706  00000-0 -64028-2 0  9991,2 56484  69.9976 206.3622 0003436 275.2385 299.3012 15.75235301  2554,6722.099,91.415,346.273,341.654,0.0
56484.0,STARLINK-6221,PAYLOAD,2023-05-24 22:00:00,15.74565106,0.0003555,69.9977,205.4181,269.2312,34.5784,-0.0064373,-0.0085307,0.0,0 STARLINK-6221,1 56484U 23064AN  23144.91667824 -.00853070  00000-0 -64373-2 0  9999,2 56484  69.9977 205.4181 0003555 269.2312  34.5784 15.74565106  1305,6724.006,91.454,348.261,343.481,0.0
56484.0,STARLINK-6221,PAYLOAD,2023-05-25 04:00:01,15.74138254,0.0003646,69.998,204.7107,266.4313,13.9,-0.0072601,-0.00935173,0.0,0 STARLINK-6221,1 56484U 23064AN  23145.16668981 -.00935173  00000-0 -72601-2 0  9990,2 56484  69.9980 204.7107 0003646 266.4313  13.9000 15.74138254  2640,6725.221,91.479,349.539,344.634,0.0
56484.0,STARLINK-6221,PAYLOAD,2023-05-25 14:00:01,15.73269758,0.000373,69.998,203.5324,274.7078,205.4033,-0.0068608,-0.00859083,0.0,0 STARLINK-6221,1 56484U 23064AN  23145.58334491 -.00859083  00000-0 -68608-2 0  9999,2 56484  69.9980 203.5324 0003730 274.7078 205.4033 15.73269758  1301,6727.696,91.529,352.071,347.052,0.0
56484.0,STARLINK-6221,PAYLOAD,2023-05-25 22:00:00,15.72614067,0.0003642,69.9977,202.5908,269.2124,297.8821,-0.007073,-0.00860866,0.0,0 STARLINK-6221,1 56484U 23064AN  23145.91667824 -.00860866  00000-0 -70730-2 0  9995,2 56484  69.9977 202.5908 0003642 269.2124 297.8821 15.72614067  1303,6729.566,91.567,353.882,348.98,0.0
56484.0,STARLINK-6221,PAYLOAD,2023-05-26 06:00:00,15.72019076,0.0003753,69.9979,201.6505,266.8366,26.4396,-0.008108,-0.00966711,0.0,0 STARLINK-6221,1 56484U 23064AN  23146.25001157 -.00966711  00000-0 -81080-2 0  9990,2 56484  69.9979 201.6505 0003753 266.8366  26.4396 15.72019076  2811,6731.264,91.602,355.655,350.603,0.0
56484.0,STARLINK-6221,PAYLOAD,2023-05-26 14:00:01,15.71324667,0.0003692,69.9976,200.7108,273.5453,105.1549,-0.0075925,-0.00873483,0.0,0 STARLINK-6221,1 56484U 23064AN  23146.58334491 -.00873483  00000-0 -75925-2 0  9990,2 56484  69.9976 200.7108 0003692 273.5453 105.1549 15.71324667  1303,6733.247,91.642,357.598,352.626,0.0
56484.0,STARLINK-6221,PAYLOAD,2023-05-26 22:00:01,15.70606669,0.0003558,69.9978,199.7719,267.3823,196.0374,-0.0066191,-0.00749846,0.0,0 STARLINK-6221,1 56484U 23064AN  23146.91668981 -.00749846  00000-0 -66191-2 0  9991,2 56484  69.9978 199.7719 0003558 267.3823 196.0374 15.70606669  2921,6735.299,91.684,359.56,354.768,0.0
56484.0,STARLINK-6221,PAYLOAD,2023-05-27 06:00:02,15.6996791,0.000351,69.9984,198.8342,265.8206,281.4345,-0.00069487,-0.00083098,0.0,0 STARLINK-6221,1 56484U 23064AN  23147.25002315 -.00083098  00000-0 -69487-3 0  9994,2 56484  69.9984 198.8342 0003510 265.8206 281.4345 15.69967910  2975,6737.126,91.722,361.356,356.626,0.0
56484.0,STARLINK-6221,PAYLOAD,2023-05-27 22:00:00,15.69896619,0.0003495,69.9986,196.9596,268.0041,85.8699,0.00038484,0.00046265,0.0,0 STARLINK-6221,1 56484U 23064AN  23147.91667824  .00046265  00000-0  38484-3 0  9995,2 56484  69.9986 196.9596 0003495 268.0041  85.8699 15.69896619  3078,6737.33,91.726,361.549,356.84,0.0
56484.0,STARLINK-6221,PAYLOAD,2023-05-28 06:00:00,15.69966533,0.0003584,69.9987,196.0226,270.1931,166.9952,-0.00074059,-0.00088491,0.0,0 STARLINK-6221,1 56484U 23064AN  23148.25001157 -.00088491  00000-0 -74059-3 0  9991,2 56484  69.9987 196.0226 0003584 270.1931 166.9952 15.69966533  1301,6737.13,91.722,361.409,356.58,0.0
56484.0,STARLINK-6221,PAYLOAD,2023-05-28 14:00:01,15.69904949,0.0003571,69.9986,195.0854,276.0193,244.5275,0.00033985,0.00040819,0.0,0 STARLINK-6221,1 56484U 23064AN  23148.58334491  .00040819  00000-0  33985-3 0  9990,2 56484  69.9986 195.0854 0003571 276.0193 244.5275 15.69904949  3189,6737.306,91.725,361.577,356.765,0.0
56484.0,STARLINK-6221,PAYLOAD,2023-05-28 22:00:00,15.69878213,0.0003539,69.999,194.148,269.8249,334.0778,0.00045959,0.00055311,0.0,0 STARLINK-6221,1 56484U 23064AN  23148.91667824  .00055311  00000-0  45959-3 0  9993,2 56484  69.9990 194.1480 0003539 269.8249 334.0778 15.69878213  1304,6737.382,91.727,361.632,356.863,0.0
56484.0,STARLINK-6221,PAYLOAD,2023-05-29 04:36:38,15.69923406,0.0003707,69.9985,193.3736,276.1393,83.9381,0.0001027,0.00012154,0.0,0 STARLINK-6221,1 56484U 23064AN  23149.19211430  .00012154  00000-0  10270-3 0  9998,2 56484  69.9985 193.3736 0003707 276.1393  83.9381 15.69923406  3274,6737.253,91.724,361.616,356.621,0.0
56484.0,STARLINK-6221,PAYLOAD,2023-05-29 12:15:24,15.6992746,0.0003552,69.9986,192.4781,271.2155,88.8633,0.00016332,0.00019474,0.0,0 STARLINK-6221,1 56484U 23064AN  23149.51069810  .00019474  00000-0  16332-3 0  9994,2 56484  69.9986 192.4781 0003552 271.2155  88.8633 15.69927460  2979,6737.242,91.724,361.5,356.713,0.0
56484.0,STARLINK-6221,PAYLOAD,2023-05-29 19:54:09,15.69934062,0.0003556,69.9987,191.5826,270.0014,90.0774,0.00011297,0.00013399,0.0,0 STARLINK-6221,1 56484U 23064AN  23149.82928053  .00013399  00000-0  11297-3 0  9996,2 56484  69.9987 191.5826 0003556 270.0014  90.0774 15.69934062  3029,6737.223,91.724,361.483,356.692,0.0
